{
  "type": "FeatureCollection",
  "features": [
    {
      "type": "Feature",
      "properties": {
        "norad_id": 34497,
        "name": "IRIDIUM 33 DEB",
        "group": "iridium-33-debris",
        "lat": -48.36610851195322,
        "lon": -128.9738541632499,
        "alt_km": 786.164007136631,
        "timestamp": "2025-12-25T19:00:39.736154+00:00",
        "meta_object_name": "IRIDIUM 33 DEB",
        "meta_object_id": "1997-051GN",
        "meta_epoch": "2025-12-22T21:33:03.136608",
        "meta_mean_motion": 14.27482363,
        "meta_eccentricity": 0.00780484,
        "meta_inclination": 86.2769,
        "meta_ra_of_asc_node": 48.0617,
        "meta_arg_of_pericenter": 306.2683,
        "meta_mean_anomaly": 179.2919,
        "meta_ephemeris_type": 0,
        "meta_classification_type": "U",
        "meta_norad_cat_id": 34497,
        "meta_element_set_no": 999,
        "meta_rev_at_epoch": 87028,
        "meta_bstar": 0.00056228088,
        "meta_mean_motion_dot": 1.443e-05,
        "meta_mean_motion_ddot": 0,
        "tle_line1": "1 34497U 97051GN  25356.89795297  .00001443  00000+0  56228-3 0  9993",
        "tle_line2": "2 34497  86.2769  48.0617 0078048 306.2683 179.2919 14.27482363870281"
      },
      "geometry": {
        "type": "Point",
        "coordinates": [
          -128.9738541632499,
          -48.36610851195322
        ]
      }
    },
    {
      "type": "Feature",
      "properties": {
        "norad_id": 34508,
        "name": "IRIDIUM 33 DEB",
        "group": "iridium-33-debris",
        "lat": -4.24814801330173,
        "lon": -82.62004739147311,
        "alt_km": 738.183234003418,
        "timestamp": "2025-12-25T19:00:39.736164+00:00",
        "meta_object_name": "IRIDIUM 33 DEB",
        "meta_object_id": "1997-051GZ",
        "meta_epoch": "2025-12-24T17:07:17.089536",
        "meta_mean_motion": 14.3851431,
        "meta_eccentricity": 0.00666407,
        "meta_inclination": 86.3702,
        "meta_ra_of_asc_node": 97.5672,
        "meta_arg_of_pericenter": 134.5991,
        "meta_mean_anomaly": 226.0672,
        "meta_ephemeris_type": 0,
        "meta_classification_type": "U",
        "meta_norad_cat_id": 34508,
        "meta_element_set_no": 999,
        "meta_rev_at_epoch": 87481,
        "meta_bstar": 0.0012177441,
        "meta_mean_motion_dot": 3.837e-05,
        "meta_mean_motion_ddot": 0,
        "tle_line1": "1 34508U 97051GZ  25358.71339224  .00003837  00000+0  12177-2 0  9996",
        "tle_line2": "2 34508  86.3702  97.5672 0066640 134.5991 226.0672 14.38514310874811"
      },
      "geometry": {
        "type": "Point",
        "coordinates": [
          -82.62004739147311,
          -4.24814801330173
        ]
      }
    },
    {
      "type": "Feature",
      "properties": {
        "norad_id": 34521,
        "name": "IRIDIUM 33 DEB",
        "group": "iridium-33-debris",
        "lat": 86.04720381512622,
        "lon": 138.3755823298402,
        "alt_km": 673.8500539008919,
        "timestamp": "2025-12-25T19:00:39.736174+00:00",
        "meta_object_name": "IRIDIUM 33 DEB",
        "meta_object_id": "1997-051HN",
        "meta_epoch": "2025-12-24T19:37:11.782272",
        "meta_mean_motion": 14.63462765,
        "meta_eccentricity": 0.00031171,
        "meta_inclination": 86.3786,
        "meta_ra_of_asc_node": 25.2294,
        "meta_arg_of_pericenter": 167.2726,
        "meta_mean_anomaly": 192.8565,
        "meta_ephemeris_type": 0,
        "meta_classification_type": "U",
        "meta_norad_cat_id": 34521,
        "meta_element_set_no": 999,
        "meta_rev_at_epoch": 88649,
        "meta_bstar": 0.00083071408,
        "meta_mean_motion_dot": 4.322e-05,
        "meta_mean_motion_ddot": 0,
        "tle_line1": "1 34521U 97051HN  25358.81749748  .00004322  00000+0  83071-3 0  9990",
        "tle_line2": "2 34521  86.3786  25.2294 0003117 167.2726 192.8565 14.63462765886497"
      },
      "geometry": {
        "type": "Point",
        "coordinates": [
          138.3755823298402,
          86.04720381512622
        ]
      }
    },
    {
      "type": "Feature",
      "properties": {
        "norad_id": 34525,
        "name": "IRIDIUM 33 DEB",
        "group": "iridium-33-debris",
        "lat": 28.6786816503295,
        "lon": 43.260988470570716,
        "alt_km": 743.9572538622051,
        "timestamp": "2025-12-25T19:00:39.736184+00:00",
        "meta_object_name": "IRIDIUM 33 DEB",
        "meta_object_id": "1997-051HS",
        "meta_epoch": "2025-12-25T02:30:42.897888",
        "meta_mean_motion": 14.42933846,
        "meta_eccentricity": 0.00062357,
        "meta_inclination": 86.3717,
        "meta_ra_of_asc_node": 41.5654,
        "meta_arg_of_pericenter": 66.5696,
        "meta_mean_anomaly": 353.5151,
        "meta_ephemeris_type": 0,
        "meta_classification_type": "U",
        "meta_norad_cat_id": 34525,
        "meta_element_set_no": 999,
        "meta_rev_at_epoch": 88266,
        "meta_bstar": 0.00033935574,
        "meta_mean_motion_dot": 1.154e-05,
        "meta_mean_motion_ddot": 0,
        "tle_line1": "1 34525U 97051HS  25359.10466317  .00001154  00000+0  33936-3 0  9990",
        "tle_line2": "2 34525  86.3717  41.5654 0006235  66.5696 353.5151 14.42933846882669"
      },
      "geometry": {
        "type": "Point",
        "coordinates": [
          43.260988470570716,
          28.6786816503295
        ]
      }
    },
    {
      "type": "Feature",
      "properties": {
        "norad_id": 34529,
        "name": "IRIDIUM 33 DEB",
        "group": "iridium-33-debris",
        "lat": 4.05546694366292,
        "lon": -150.41151270245498,
        "alt_km": 755.3845360131036,
        "timestamp": "2025-12-25T19:00:39.736194+00:00",
        "meta_object_name": "IRIDIUM 33 DEB",
        "meta_object_id": "1997-051HW",
        "meta_epoch": "2025-12-25T03:11:41.417664",
        "meta_mean_motion": 14.40625756,
        "meta_eccentricity": 0.00061749,
        "meta_inclination": 86.3629,
        "meta_ra_of_asc_node": 30.1278,
        "meta_arg_of_pericenter": 141.8803,
        "meta_mean_anomaly": 218.2834,
        "meta_ephemeris_type": 0,
        "meta_classification_type": "U",
        "meta_norad_cat_id": 34529,
        "meta_element_set_no": 999,
        "meta_rev_at_epoch": 88320,
        "meta_bstar": 0.00012533763,
        "meta_mean_motion_dot": 4.2e-06,
        "meta_mean_motion_ddot": 0,
        "tle_line1": "1 34529U 97051HW  25359.13311826  .00000420  00000+0  12534-3 0  9997",
        "tle_line2": "2 34529  86.3629  30.1278 0006174 141.8803 218.2834 14.40625756883202"
      },
      "geometry": {
        "type": "Point",
        "coordinates": [
          -150.41151270245498,
          4.05546694366292
        ]
      }
    },
    {
      "type": "Feature",
      "properties": {
        "norad_id": 34538,
        "name": "IRIDIUM 33 DEB",
        "group": "iridium-33-debris",
        "lat": 69.92199935867409,
        "lon": 169.57473094918706,
        "alt_km": 765.4188744631665,
        "timestamp": "2025-12-25T19:00:39.736205+00:00",
        "meta_object_name": "IRIDIUM 33 DEB",
        "meta_object_id": "1997-051JF",
        "meta_epoch": "2025-12-24T17:48:32.243904",
        "meta_mean_motion": 14.42715706,
        "meta_eccentricity": 0.00319126,
        "meta_inclination": 86.2764,
        "meta_ra_of_asc_node": 0.2977,
        "meta_arg_of_pericenter": 286.3391,
        "meta_mean_anomaly": 132.9527,
        "meta_ephemeris_type": 0,
        "meta_classification_type": "U",
        "meta_norad_cat_id": 34538,
        "meta_element_set_no": 999,
        "meta_rev_at_epoch": 87929,
        "meta_bstar": 0.00092856968,
        "meta_mean_motion_dot": 3.127e-05,
        "meta_mean_motion_ddot": 0,
        "tle_line1": "1 34538U 97051JF  25358.74203986  .00003127  00000+0  92857-3 0  9993",
        "tle_line2": "2 34538  86.2764   0.2977 0031912 286.3391 132.9527 14.42715706879292"
      },
      "geometry": {
        "type": "Point",
        "coordinates": [
          169.57473094918706,
          69.92199935867409
        ]
      }
    },
    {
      "type": "Feature",
      "properties": {
        "norad_id": 34540,
        "name": "IRIDIUM 33 DEB",
        "group": "iridium-33-debris",
        "lat": -84.01505037544,
        "lon": 159.6162212088496,
        "alt_km": 661.7880051736156,
        "timestamp": "2025-12-25T19:00:39.736215+00:00",
        "meta_object_name": "IRIDIUM 33 DEB",
        "meta_object_id": "1997-051JH",
        "meta_epoch": "2025-12-24T20:53:56.859072",
        "meta_mean_motion": 14.75561419,
        "meta_eccentricity": 0.00182412,
        "meta_inclination": 86.3113,
        "meta_ra_of_asc_node": 302.0602,
        "meta_arg_of_pericenter": 118.9915,
        "meta_mean_anomaly": 295.2293,
        "meta_ephemeris_type": 0,
        "meta_classification_type": "U",
        "meta_norad_cat_id": 34540,
        "meta_element_set_no": 999,
        "meta_rev_at_epoch": 89200,
        "meta_bstar": 0.0016633043,
        "meta_mean_motion_dot": 0.00011395,
        "meta_mean_motion_ddot": 0,
        "tle_line1": "1 34540U 97051JH  25358.87079698  .00011395  00000+0  16633-2 0  9994",
        "tle_line2": "2 34540  86.3113 302.0602 0018241 118.9915 295.2293 14.75561419892007"
      },
      "geometry": {
        "type": "Point",
        "coordinates": [
          159.6162212088496,
          -84.01505037544
        ]
      }
    }
  ]
}